QUETZSAT 1              
1 37826U 11054A   22043.84182069 -.00000238  00000+0  00000+0 0  9998
2 37826   0.0118  62.5731 0003101 256.6103  49.7022  1.00271503 33997
INTELSAT 18 (IS-18)     
1 37834U 11056A   22043.82132440  .00000056  00000+0  00000+0 0  9992
2 37834   0.0196  39.7499 0002399 301.2000 277.5487  1.00270273 37915
EUTELSAT 16A            
1 37836U 11057A   22043.86039816  .00000107  00000+0  00000+0 0  9999
2 37836   0.0728 343.8520 0005242 342.5202 142.2298  1.00269676 30077
VIASAT-1                
1 37843U 11059A   22043.67248970 -.00000020  00000+0  00000+0 0  9996
2 37843   0.0243 112.6511 0002532 209.5290 307.4926  1.00271392 31428
ASIASAT 7               
1 37933U 11069A   22043.53243896 -.00000330  00000+0  00000+0 0  9998
2 37933   0.0442 252.9505 0001893  41.9968 144.7436  1.00272368 37562
BEIDOU 10               
1 37948U 11073A   22044.08010866 -.00000112  00000+0  00000+0 0  9997
2 37948  50.5458 290.7685 0077200 218.7768 118.0539  1.00280882 37503
LUCH 5A                 
1 37951U 11074B   22043.89052654 -.00000046  00000+0  00000+0 0  9997
2 37951   4.7064 100.1602 0002737 239.2827 290.9942  1.00274582 37295
NIGCOMSAT 1R            
1 38014U 11077A   22043.86563125  .00000148  00000+0  00000+0 0  9990
2 38014   0.0221 115.1360 0002225 259.6619 122.1795  1.00269511 37067
FENGYUN 2F              
1 38049U 12002A   22043.87953704 -.00000355  00000+0  00000+0 0  9995
2 38049   3.4886  80.6292 0005631 352.8579 138.0789  1.00264200 36994
WGS F4 (USA 233)        
1 38070U 12003A   22043.87478914 -.00000212  00000+0  00000+0 0  9997
2 38070   0.0136 106.9173 0000775 172.7767 266.4839  1.00274897 28256
SES-4                   
1 38087U 12007A   22043.70924903 -.00000164  00000+0  00000+0 0  9991
2 38087   0.0146  34.9985 0002225 285.2636  55.7704  1.00271684 36332
BEIDOU 11               
1 38091U 12008A   22044.15593146  .00000060  00000+0  00000+0 0  9992
2 38091   2.0879  72.1392 0008271 284.2907 261.5461  1.00270942 36585
MUOS-1                  
1 38093U 12009A   22043.63532131 -.00000123  00000+0  00000+0 0  9995
2 38093   2.8024  28.5675 0056757 356.5347 246.2723  1.00272173 36544
INTELSAT 22 (IS-22)     
1 38098U 12011A   22043.92271998 -.00000055  00000+0  00000+0 0  9990
2 38098   0.0233  95.8377 0002691 232.5048 218.8573  1.00272302 35929
APSTAR 7                
1 38107U 12013A   22043.87473747 -.00000098  00000+0  00000+0 0  9990
2 38107   0.0173 118.9354 0002858 227.2948 188.0537  1.00272227 35913
YAHSAT 1B               
1 38245U 12016A   22043.72311670  .00000130  00000+0  00000+0 0  9992
2 38245   0.0129 111.1697 0002666 214.6691 124.8006  1.00272882 29698
AEHF-2 (USA 235)        
1 38254U 12019A   22043.83841917 -.00000157  00000+0  00000+0 0  9999
2 38254   3.0887  59.7726 0003855 264.8593  25.8550  1.00271806 34955
JCSAT-13                
1 38331U 12023A   22043.86507791 -.00000353  00000+0  00000+0 0  9990
2 38331   0.0240 221.9440 0002128 124.1589 232.1864  1.00271076 35638
VINASAT-2               
1 38332U 12023B   22043.87271487 -.00000325  00000+0  00000+0 0  9991
2 38332   0.0153  64.7799 0002375 268.0704 256.0447  1.00271926 35718
NIMIQ 6                 
1 38342U 12026A   22043.83902970 -.00000170  00000+0  00000+0 0  9997
2 38342   0.0574 277.3889 0002706  42.2507  34.1577  1.00271513 34528
CHINASAT 2A (ZX 2A)     
1 38352U 12028A   22043.87662073 -.00000289  00000+0  00000+0 0  9992
2 38352   0.0384 257.5596 0002836  94.1311 205.0092  1.00272350 35483
INTELSAT 19 (IS-19)     
1 38356U 12030A   22043.88313265 -.00000053  00000+0  00000+0 0  9995
2 38356   0.0162  98.8938 0003057 236.4491 291.4662  1.00271993 34543
ECHOSTAR 17             
1 38551U 12035A   22043.67930029 -.00000071  00000+0  00000+0 0  9997
2 38551   0.0155 102.7645 0001913 216.2905 321.0664  1.00272440 35166
METEOSAT-10 (MSG-3)     
1 38552U 12035B   22043.85908987  .00000064  00000+0  00000+0 0  9997
2 38552   1.3609  32.7134 0001634 235.2752 193.5959  1.00265581 34965
SES-5                   
1 38652U 12036A   22043.85821769  .00000037  00000+0  00000+0 0  9991
2 38652   0.0672 285.6743 0002253  29.7676 141.3404  1.00271391 28590
TIANLIAN 1-03           
1 38730U 12040A   22043.93300178  .00000128  00000+0  00000+0 0  9999
2 38730   1.7019  93.0933 0005833 301.6201 104.5268  1.00276539 35096
INTELSAT 20 (IS-20)     
1 38740U 12043A   22043.72730317 -.00000021  00000+0  00000+0 0  9995
2 38740   0.0224 116.3028 0001471  53.8278 302.9167  1.00271414 34857
HYLAS 2                 
1 38741U 12043B   22043.86336358  .00000158  00000+0  00000+0 0  9998
2 38741   0.0571 273.6811 0001984  38.1285 172.8920  1.00272080 34876
INTELSAT 21 (IS-21)     
1 38749U 12045A   22044.06095084 -.00000281  00000+0  00000+0 0  9997
2 38749   0.0145  99.3799 0002266 220.9480 146.6731  1.00272378 34746
ASTRA 2F                
1 38778U 12051A   22043.86284025  .00000153  00000+0  00000+0 0  9995
2 38778   0.0972 254.4206 0003324  18.0833 209.1815  1.00268985 25238
GSAT-10                 
1 38779U 12051B   22043.87752314 -.00000162  00000+0  00000+0 0  9999
2 38779   0.0554 276.7839 0003197 348.5992 276.4088  1.00271964 34217
INTELSAT 23 (IS-23)     
1 38867U 12057A   22044.06191024 -.00000281  00000+0  00000+0 0  9992
2 38867   0.0399 254.7359 0002047  64.2402 153.3469  1.00270889 34217
BEIDOU 16               
1 38953U 12059A   22043.87752314 -.00000173  00000+0  00000+0 0  9993
2 38953   1.6806  84.6641 0012902 281.1427 177.0024  1.00271223 34016
LUCH 5B                 
1 38977U 12061A   22043.35156716 -.00000134  00000+0  00000+0 0  9996
2 38977   7.0205  63.5407 0001020 330.6761 218.3564  1.00270774 34277
YAMAL 300K              
1 38978U 12061B   22044.10900807  .00000074  00000+0  00000+0 0  9991
2 38978   0.0240 109.3176 0000455 127.0344 128.9662  1.00269869 33983
STAR ONE C3             
1 38991U 12062A   22043.84225677 -.00000245  00000+0  00000+0 0  9993
2 38991   0.0083 277.7499 0002364  52.0492  41.2575  1.00271492 33865
EUTELSAT 21B            
1 38992U 12062B   22043.86153198  .00000133  00000+0  00000+0 0  9999
2 38992   0.0676   7.7741 0002160 323.1137 143.7225  1.00269188 33945
ECHOSTAR 16             
1 39008U 12065A   22044.06025310 -.00000278  00000+0  00000+0 0  9999
2 39008   0.0127 111.4510 0002128 214.8610 136.9291  1.00270434 33918
CHINASAT 12 (ZX 12)     
1 39017U 12067A   22043.87461472 -.00000204  00000+0  00000+0 0  9991
2 39017   0.0130 128.0989 0002824 196.0686 221.0576  1.00273675 33612
EUTELSAT 70B            
1 39020U 12069A   22043.87886571 -.00000040  00000+0  00000+0 0  9996
2 39020   0.0653 354.3383 0004545 257.1479 278.2613  1.00270964 33613
YAMAL 402               
1 39022U 12070A   22043.50925769  .00000090  00000+0  00000+0 0  9997
2 39022   0.0144 133.1888 0003526 197.7776  49.7771  1.00273331 33707
SKYNET 5D               
1 39034U 12075A   22043.86772448  .00000103  00000+0  00000+0 0  9993
2 39034   0.0718   4.8663 0004335 311.4197 191.6952  1.00269972 33279
MEXSAT 3                
1 39035U 12075B   22043.67249813 -.00000022  00000+0  00000+0 0  9999
2 39035   0.0180  88.6309 0002071 231.9620 309.3734  1.00271385 33280
TDRS 11                 
1 39070U 13004A   22043.78573167  .00000088  00000+0  00000+0 0  9996
2 39070   3.0500 342.7009 0005503  42.7594 225.7364  1.00270236 30797
AMAZONAS 3              
1 39078U 13006A   22043.84504775 -.00000279  00000+0  00000+0 0  9995
2 39078   0.0530 253.5778 0002886  37.4406  95.0405  1.00273515 29000
AZERSPACE 1             
1 39079U 13006B   22043.86632898  .00000136  00000+0  00000+0 0  9997
2 39079   0.0008   0.9490 0002450 357.1547 142.6324  1.00274248 32918
SBIRS GEO-2 (USA 241)   
1 39120U 13011A   22043.86135755  .00000126  00000+0  00000+0 0  9999
2 39120   1.8928  15.0857 0001783 312.4615 146.0935  1.00272442 32647
EUTELSAT 117 WEST A     
1 39122U 13012A   22043.67143731 -.00000009  00000+0  00000+0 0  9995
2 39122   0.0336 293.4799 0002972  33.1608 300.9393  1.00272710 32546
ANIK G1                 
1 39127U 13014A   22043.67823407 -.00000070  00000+0  00000+0 0  9995
2 39127   0.0148 165.6689 0002575 116.6597 357.2091  1.00271966 32354
CHINASAT 11 (ZX 11)     
1 39157U 13020A   22043.87662073 -.00000287  00000+0  00000+0 0  9997
2 39157   0.0436 275.1153 0001591  45.1321 236.1135  1.00272165 32253
EUTELSAT 7B             
1 39163U 13022A   22043.85856656  .00000052  00000+0  00000+0 0  9995
2 39163   0.0691 353.0401 0006057 349.6596 116.2288  1.00273397 32089
WGS F5 (USA 243)        
1 39168U 13024A   22043.89110181 -.00000281  00000+0  00000+0 0  9997
2 39168   0.0114 114.1373 0000573 198.6454  98.3943  1.00271509 31934
SES-6                   
1 39172U 13026A   22043.84914701 -.00000257  00000+0  00000+0 0  9992
2 39172   0.0671 284.9201 0002542  36.4376  86.6884  1.00272344 31823
IRNSS-1A                
1 39199U 13034A   22042.22063441  .00000071  00000+0  00000+0 0  9990
2 39199  32.1473  87.3089 0019845 187.9932   0.4415  1.00272682 31459
MUOS-2                  
1 39206U 13036A   22043.89357917  .00000069  00000+0  00000+0 0  9996
2 39206   2.6153  18.7927 0050341 184.1173  84.6624  1.00269776 31294
ALPHASAT                
1 39215U 13038A   22044.07743508  .00000139  00000+0  00000+0 0  9992
2 39215   2.6643  14.8017 0002438 305.0398 235.9628  1.00276700 31371
INSAT-3D                
1 39216U 13038B   22043.87752314 -.00000153  00000+0  00000+0 0  9992
2 39216   0.1088 274.0287 0001037  57.4150 209.4065  1.00272359 31204
WGS F6 (USA 244)        
1 39222U 13041A   22043.65557559  .00000093  00000+0  00000+0 0  9995
2 39222   0.0265 111.2859 0000533 177.9575 314.2333  1.00271617 30155
ES'HAIL 1               
1 39233U 13044A   22043.86222972  .00000147  00000+0  00000+0 0  9991
2 39233   0.0502  25.0421 0001914 294.5155 159.1699  1.00274013 30741
